CCSDS_OMM_VERS = 2.0
CREATION_DATE  = 
ORIGINATOR     = 

OBJECT_NAME    = SL-16 R/B
OBJECT_ID      = 1994-074B
CENTER_NAME    = EARTH
REF_FRAME      = TEME
TIME_SYSTEM    = UTC
MEAN_ELEMENT_THEORY = SGP/SGP4

EPOCH          = 2025-12-24T02:34:06.794112
MEAN_MOTION    = 14.79301936
ECCENTRICITY   = .00080318
INCLINATION    = 97.7190
RA_OF_ASC_NODE = 26.9592
ARG_OF_PERICENTER = 104.7646
MEAN_ANOMALY   = 320.7851

EPHEMERIS_TYPE = 0
CLASSIFICATION_TYPE = U
NORAD_CAT_ID   = 23343
ELEMENT_SET_NO = 999
REV_AT_EPOCH   = 67607
BSTAR          = .69195143E-4
MEAN_MOTION_DOT = .466E-5
MEAN_MOTION_DDOT = 0

CCSDS_OMM_VERS = 2.0
CREATION_DATE  = 
ORIGINATOR     = 

OBJECT_NAME    = SL-16 R/B
OBJECT_ID      = 1994-077B
CENTER_NAME    = EARTH
REF_FRAME      = TEME
TIME_SYSTEM    = UTC
MEAN_ELEMENT_THEORY = SGP/SGP4

EPOCH          = 2025-12-23T20:57:42.154848
MEAN_MOTION    = 14.15552576
ECCENTRICITY   = .0005033
INCLINATION    = 70.9820
RA_OF_ASC_NODE = 151.9914
ARG_OF_PERICENTER = 276.3748
MEAN_ANOMALY   = 83.6801

EPHEMERIS_TYPE = 0
CLASSIFICATION_TYPE = U
NORAD_CAT_ID   = 23405
ELEMENT_SET_NO = 999
REV_AT_EPOCH   = 60550
BSTAR          = -.56921E-4
MEAN_MOTION_DOT = -.159E-5
MEAN_MOTION_DDOT = 0

CCSDS_OMM_VERS = 2.0
CREATION_DATE  = 
ORIGINATOR     = 

OBJECT_NAME    = ARIANE 40+ R/B
OBJECT_ID      = 1995-021B
CENTER_NAME    = EARTH
REF_FRAME      = TEME
TIME_SYSTEM    = UTC
MEAN_ELEMENT_THEORY = SGP/SGP4

EPOCH          = 2025-12-24T04:53:59.299584
MEAN_MOTION    = 14.39703920
ECCENTRICITY   = .00068839
INCLINATION    = 98.4635
RA_OF_ASC_NODE = 65.6541
ARG_OF_PERICENTER = 18.0130
MEAN_ANOMALY   = 44.2926

EPHEMERIS_TYPE = 0
CLASSIFICATION_TYPE = U
NORAD_CAT_ID   = 23561
ELEMENT_SET_NO = 999
REV_AT_EPOCH   = 60838
BSTAR          = .11617668E-3
MEAN_MOTION_DOT = .32E-5
MEAN_MOTION_DDOT = 0

CCSDS_OMM_VERS = 2.0
CREATION_DATE  = 
ORIGINATOR     = 

OBJECT_NAME    = SL-16 R/B
OBJECT_ID      = 1995-058B
CENTER_NAME    = EARTH
REF_FRAME      = TEME
TIME_SYSTEM    = UTC
MEAN_ELEMENT_THEORY = SGP/SGP4

EPOCH          = 2025-12-24T07:12:57.022272
MEAN_MOTION    = 14.15481687
ECCENTRICITY   = .00147008
INCLINATION    = 71.0218
RA_OF_ASC_NODE = 338.5320
ARG_OF_PERICENTER = 240.0981
MEAN_ANOMALY   = 119.8682

EPHEMERIS_TYPE = 0
CLASSIFICATION_TYPE = U
NORAD_CAT_ID   = 23705
ELEMENT_SET_NO = 999
REV_AT_EPOCH   = 55718
BSTAR          = -.7528019E-4
MEAN_MOTION_DOT = -.195E-5
MEAN_MOTION_DDOT = 0

CCSDS_OMM_VERS = 2.0
CREATION_DATE  = 
ORIGINATOR     = 

OBJECT_NAME    = SL-16 R/B
OBJECT_ID      = 1996-051B
CENTER_NAME    = EARTH
REF_FRAME      = TEME
TIME_SYSTEM    = UTC
MEAN_ELEMENT_THEORY = SGP/SGP4

EPOCH          = 2025-12-24T05:52:55.962624
MEAN_MOTION    = 14.12397448
ECCENTRICITY   = .00194948
INCLINATION    = 70.7595
RA_OF_ASC_NODE = 334.9300
ARG_OF_PERICENTER = 247.2538
MEAN_ANOMALY   = 112.6522

EPHEMERIS_TYPE = 0
CLASSIFICATION_TYPE = U
NORAD_CAT_ID   = 24298
ELEMENT_SET_NO = 999
REV_AT_EPOCH   = 51099
BSTAR          = .11454346E-4
MEAN_MOTION_DOT = -.28E-6
MEAN_MOTION_DDOT = 0

CCSDS_OMM_VERS = 2.0
CREATION_DATE  = 
ORIGINATOR     = 

OBJECT_NAME    = ORBVIEW 2 (SEASTAR)
OBJECT_ID      = 1997-037A
CENTER_NAME    = EARTH
REF_FRAME      = TEME
TIME_SYSTEM    = UTC
MEAN_ELEMENT_THEORY = SGP/SGP4

EPOCH          = 2025-12-23T23:57:50.423328
MEAN_MOTION    = 14.35424694
ECCENTRICITY   = .00012615
INCLINATION    = 98.8462
RA_OF_ASC_NODE = 155.3567
ARG_OF_PERICENTER = 292.8869
MEAN_ANOMALY   = 67.2183

EPHEMERIS_TYPE = 0
CLASSIFICATION_TYPE = U
NORAD_CAT_ID   = 24883
ELEMENT_SET_NO = 999
REV_AT_EPOCH   = 49761
BSTAR          = .11152331E-3
MEAN_MOTION_DOT = .274E-5
MEAN_MOTION_DDOT = 0

CCSDS_OMM_VERS = 2.0
CREATION_DATE  = 
ORIGINATOR     = 

OBJECT_NAME    = SL-16 R/B
OBJECT_ID      = 1998-043G
CENTER_NAME    = EARTH
REF_FRAME      = TEME
TIME_SYSTEM    = UTC
MEAN_ELEMENT_THEORY = SGP/SGP4

EPOCH          = 2025-12-23T14:29:22.030944
MEAN_MOTION    = 14.26027780
ECCENTRICITY   = .00089564
INCLINATION    = 98.8143
RA_OF_ASC_NODE = 305.4834
ARG_OF_PERICENTER = 231.6099
MEAN_ANOMALY   = 128.4277

EPHEMERIS_TYPE = 0
CLASSIFICATION_TYPE = U
NORAD_CAT_ID   = 25400
ELEMENT_SET_NO = 999
REV_AT_EPOCH   = 42814
BSTAR          = .370514E-4
MEAN_MOTION_DOT = .43E-6
MEAN_MOTION_DDOT = 0

CCSDS_OMM_VERS = 2.0
CREATION_DATE  = 
ORIGINATOR     = 

OBJECT_NAME    = SL-16 R/B
OBJECT_ID      = 1998-045B
CENTER_NAME    = EARTH
REF_FRAME      = TEME
TIME_SYSTEM    = UTC
MEAN_ELEMENT_THEORY = SGP/SGP4

EPOCH          = 2025-12-24T06:40:22.133280
MEAN_MOTION    = 14.16177490
ECCENTRICITY   = .00062808
INCLINATION    = 71.0119
RA_OF_ASC_NODE = 340.1612
ARG_OF_PERICENTER = 157.4346
MEAN_ANOMALY   = 202.7055

EPHEMERIS_TYPE = 0
CLASSIFICATION_TYPE = U
NORAD_CAT_ID   = 25407
ELEMENT_SET_NO = 999
REV_AT_EPOCH   = 41642
BSTAR          = .17658221E-3
MEAN_MOTION_DOT = .302E-5
MEAN_MOTION_DDOT = 0

CCSDS_OMM_VERS = 2.0
CREATION_DATE  = 
ORIGINATOR     = 

OBJECT_NAME    = ISS (ZARYA)
OBJECT_ID      = 1998-067A
CENTER_NAME    = EARTH
REF_FRAME      = TEME
TIME_SYSTEM    = UTC
MEAN_ELEMENT_THEORY = SGP/SGP4

EPOCH          = 2025-12-24T05:07:18.077088
MEAN_MOTION    = 15.49773492
ECCENTRICITY   = .00031703
INCLINATION    = 51.6319
RA_OF_ASC_NODE = 85.6574
ARG_OF_PERICENTER = 294.2840
MEAN_ANOMALY   = 65.7818

EPHEMERIS_TYPE = 0
CLASSIFICATION_TYPE = U
NORAD_CAT_ID   = 25544
ELEMENT_SET_NO = 999
REV_AT_EPOCH   = 54463
BSTAR          = .22737508E-3
MEAN_MOTION_DOT = .1244E-3
MEAN_MOTION_DDOT = 0

CCSDS_OMM_VERS = 2.0
CREATION_DATE  = 
ORIGINATOR     = 

OBJECT_NAME    = CZ-4B R/B
OBJECT_ID      = 1999-025C
CENTER_NAME    = EARTH
REF_FRAME      = TEME
TIME_SYSTEM    = UTC
MEAN_ELEMENT_THEORY = SGP/SGP4

EPOCH          = 2025-12-24T02:33:08.612352
MEAN_MOTION    = 14.18246430
ECCENTRICITY   = .00367827
INCLINATION    = 98.6753
RA_OF_ASC_NODE = 39.1314
ARG_OF_PERICENTER = 200.7656
MEAN_ANOMALY   = 213.7687

EPHEMERIS_TYPE = 0
CLASSIFICATION_TYPE = U
NORAD_CAT_ID   = 25732
ELEMENT_SET_NO = 999
REV_AT_EPOCH   = 37745
BSTAR          = .58300566E-4
MEAN_MOTION_DOT = .78E-6
MEAN_MOTION_DDOT = 0

CCSDS_OMM_VERS = 2.0
CREATION_DATE  = 
ORIGINATOR     = 

OBJECT_NAME    = OKEAN-O
OBJECT_ID      = 1999-039A
CENTER_NAME    = EARTH
REF_FRAME      = TEME
TIME_SYSTEM    = UTC
MEAN_ELEMENT_THEORY = SGP/SGP4

EPOCH          = 2025-12-24T03:30:58.913280
MEAN_MOTION    = 14.80180500
ECCENTRICITY   = .00010881
INCLINATION    = 97.9586
RA_OF_ASC_NODE = 53.7488
ARG_OF_PERICENTER = 113.8879
MEAN_ANOMALY   = 246.2447

EPHEMERIS_TYPE = 0
CLASSIFICATION_TYPE = U
NORAD_CAT_ID   = 25860
ELEMENT_SET_NO = 999
REV_AT_EPOCH   = 42321
BSTAR          = .10609886E-3
MEAN_MOTION_DOT = .754E-5
MEAN_MOTION_DDOT = 0

CCSDS_OMM_VERS = 2.0
CREATION_DATE  = 
ORIGINATOR     = 

OBJECT_NAME    = SL-16 R/B
OBJECT_ID      = 1999-039B
CENTER_NAME    = EARTH
REF_FRAME      = TEME
TIME_SYSTEM    = UTC
MEAN_ELEMENT_THEORY = SGP/SGP4

EPOCH          = 2025-12-24T03:08:08.814912
MEAN_MOTION    = 14.81602191
ECCENTRICITY   = .00157399
INCLINATION    = 98.0110
RA_OF_ASC_NODE = 52.2819
ARG_OF_PERICENTER = 138.9824
MEAN_ANOMALY   = 221.2575

EPHEMERIS_TYPE = 0
CLASSIFICATION_TYPE = U
NORAD_CAT_ID   = 25861
ELEMENT_SET_NO = 999
REV_AT_EPOCH   = 42567
BSTAR          = .8473183E-4
MEAN_MOTION_DOT = .613E-5
MEAN_MOTION_DDOT = 0

CCSDS_OMM_VERS = 2.0
CREATION_DATE  = 
ORIGINATOR     = 

OBJECT_NAME    = DELTA 2 R/B
OBJECT_ID      = 1999-041E
CENTER_NAME    = EARTH
REF_FRAME      = TEME
TIME_SYSTEM    = UTC
MEAN_ELEMENT_THEORY = SGP/SGP4

EPOCH          = 2025-12-24T01:01:57.857664
MEAN_MOTION    = 14.11429701
ECCENTRICITY   = .05044552
INCLINATION    = 51.7605
RA_OF_ASC_NODE = 243.3237
ARG_OF_PERICENTER = 125.0781
MEAN_ANOMALY   = 239.8540

EPHEMERIS_TYPE = 0
CLASSIFICATION_TYPE = U
NORAD_CAT_ID   = 25876
ELEMENT_SET_NO = 999
REV_AT_EPOCH   = 35234
BSTAR          = .19438811E-3
MEAN_MOTION_DOT = .961E-5
MEAN_MOTION_DDOT = 0

CCSDS_OMM_VERS = 2.0
CREATION_DATE  = 
ORIGINATOR     = 

OBJECT_NAME    = HELIOS 1B
OBJECT_ID      = 1999-064A
CENTER_NAME    = EARTH
REF_FRAME      = TEME
TIME_SYSTEM    = UTC
MEAN_ELEMENT_THEORY = SGP/SGP4

EPOCH          = 2025-12-24T05:46:19.966368
MEAN_MOTION    = 14.87325678
ECCENTRICITY   = .00010504
INCLINATION    = 98.1755
RA_OF_ASC_NODE = 253.2473
ARG_OF_PERICENTER = 31.3264
MEAN_ANOMALY   = 328.8013

EPHEMERIS_TYPE = 0
CLASSIFICATION_TYPE = U
NORAD_CAT_ID   = 25977
ELEMENT_SET_NO = 999
REV_AT_EPOCH   = 67404
BSTAR          = .21151475E-3
MEAN_MOTION_DOT = .1851E-4
MEAN_MOTION_DDOT = 0

CCSDS_OMM_VERS = 2.0
CREATION_DATE  = 
ORIGINATOR     = 

OBJECT_NAME    = TERRA
OBJECT_ID      = 1999-068A
CENTER_NAME    = EARTH
REF_FRAME      = TEME
TIME_SYSTEM    = UTC
MEAN_ELEMENT_THEORY = SGP/SGP4

EPOCH          = 2025-12-24T05:40:52.358304
MEAN_MOTION    = 14.60914340
ECCENTRICITY   = .0003447
INCLINATION    = 97.9732
RA_OF_ASC_NODE = 49.4984
ARG_OF_PERICENTER = 71.7515
MEAN_ANOMALY   = 328.4472

EPHEMERIS_TYPE = 0
CLASSIFICATION_TYPE = U
NORAD_CAT_ID   = 25994
ELEMENT_SET_NO = 999
REV_AT_EPOCH   = 38406
BSTAR          = .10701804E-3
MEAN_MOTION_DOT = .479E-5
MEAN_MOTION_DDOT = 0

